FLOCK 4Q-34             
1 58316U 23174BN  24233.16142023  .00021769  00000+0  95227-3 0  9995
2 58316  97.4513 307.2242 0010898   3.1870 356.9433 15.22025817 43440
KAFASAT                 
1 58317U 23174BP  24233.78664655  .00050695  00000+0  17922-2 0  9999
2 58317  97.4504 308.9820 0009222 353.0180   7.0930 15.28969841 43616
FLOCK 4Q-7              
1 58318U 23174BQ  24233.18991149  .00019079  00000+0  84286-3 0  9994
2 58318  97.4571 307.3783 0011224   1.3668 358.7596 15.21713794 43443
FLOCK 4Q-15             
1 58319U 23174BR  24233.70802397  .00021199  00000+0  91969-3 0  9991
2 58319  97.4558 308.0384 0011219 357.8282   2.2904 15.22310676 43536
FLOCK 4Q-2              
1 58320U 23174BS  24233.85156572  .00017925  00000+0  79719-3 0  9997
2 58320  97.4512 307.8211 0010331 358.1383   1.9813 15.21507389 43548
PROTOMETHEE             
1 58321U 23174BT  24233.80433927  .00011123  00000+0  53764-3 0  9991
2 58321  97.4479 307.1238 0009736   0.5807 359.5436 15.18750538 43500
FLOCK 4Q-9              
1 58322U 23174BU  24233.76105733  .00018026  00000+0  79775-3 0  9997
2 58322  97.4526 307.8412 0010525 358.9982   1.1231 15.21673069 43530
OBSERVER-1A             
1 58323U 23174BV  24233.83255674  .00014540  00000+0  68553-3 0  9995
2 58323  97.4611 307.7371 0011306 359.1116   1.0097 15.19533889 43518
FLOCK 4Q-10             
1 58324U 23174BW  24233.13856156  .00018909  00000+0  82744-3 0  9992
2 58324  97.4534 307.3128 0010308 359.2703   0.8516 15.22049645 43444
PICO-01A003             
1 58326U 23174BY  24233.84253436  .00018474  00000+0  86577-3 0  9999
2 58326  97.4501 307.1768 0009811  20.0404 340.1214 15.19704270 43506
FLOCK 4Q-4              
1 58327U 23174BZ  24233.77128407  .00015026  00000+0  67418-3 0  9994
2 58327  97.4505 307.5873 0009666  22.3599 337.8056 15.21251361 43520
FLOCK 4Q-13             
1 58328U 23174CA  24233.71396387  .00018423  00000+0  81728-3 0  9997
2 58328  97.4578 307.7605 0011055  19.6249 340.5410 15.21581258 43517
FLOCK 4Q-21             
1 58329U 23174CB  24233.52405952  .00021109  00000+0  92238-3 0  9999
2 58329  97.4567 307.6973 0010548  20.3481 339.8173 15.22073892 43491
PICO-01G005             
1 58330U 23174CC  24233.72554789  .00045892  00000+0  17240-2 0  9990
2 58330  97.4458 308.2727 0007263 344.5303  15.5713 15.27010313 43571
BRO-10                  
1 58331U 23174CD  24233.85102536  .00018256  00000+0  73780-3 0  9990
2 58331  97.4456 308.4272 0008505 345.7899  14.3098 15.24766782 43590
LEMUR-2-MARAPAMASM      
1 58332U 23174CE  24233.70973386  .00053278  00000+0  17632-2 0  9990
2 58332  97.4468 309.3888 0007175 338.0721  22.0212 15.31118865 43649
LEMUR-2-THE-CLEANER     
1 58333U 23174CF  24233.20775428  .00042758  00000+0  16159-2 0  9997
2 58333  97.4483 308.1146 0008063 339.2100  20.8809 15.26824149 43519
OUTPOST MISSION 2       
1 58334U 23174CG  24233.79738370  .00020132  00000+0  88480-3 0  9996
2 58334  97.4584 308.1479 0010440 349.3759  10.7254 15.21886735 43544
LEMUR-2-MANGO2A         
1 58335U 23174CH  24233.75496091  .00189369  00000+0  40883-2 0  9996
2 58335  97.4452 311.0197 0006374 297.7737  62.2864 15.43793222 43756
LEMUR-2-JK0903EM1407    
1 58336U 23174CJ  24233.16340882  .00021757  00000+0  93941-3 0  9998
2 58336  97.4492 307.2658 0008364 348.9628  11.1423 15.22493331 43455
LEMUR-2-MANGO2B         
1 58337U 23174CK  24233.75393583  .00116709  00000+0  25498-2 0  9993
2 58337  97.4498 311.2249 0007132 304.7806  55.2770 15.43720332 43757
BARRY-1                 
1 58338U 23174CL  24233.18518742  .00050460  00000+0  17770-2 0  9992
2 58338  97.4510 308.5555 0007665 336.7233  23.3659 15.29110332 43537
PLATFORM-5              
1 58339U 23174CM  24233.79558357  .00046985  00000+0  16644-2 0  9992
2 58339  97.4564 309.3316 0008472 335.9947  24.0897 15.28930045 43623
LEMUR-2-MJR092620       
1 58340U 23174CN  24233.18931316  .00021985  00000+0  93909-3 0  9990
2 58340  97.4551 307.6112 0009434 345.8294  14.2676 15.22849515 43463
NINJASAT                
1 58341U 23174CP  24233.80094268  .00033593  00000+0  13041-2 0  9992
2 58341  97.4516 308.6664 0007589 338.7207  21.3714 15.25990455 43591
PEARL 1C                
1 58342U 23174CQ  24233.76070877  .00037508  00000+0  14823-2 0  9997
2 58342  97.4547 308.5190 0009650 331.0305  29.0396 15.25353577 43572
O3B MPOWER F5           
1 58346U 23175A   24229.47606864 -.00000016  00000+0  00000+0 0  9990
2 58346   0.0464  12.7442 0007024 138.1036 209.1914  5.00116936 15932
O3B MPOWER F6           
1 58347U 23175B   24232.77404968 -.00000017  00000+0  00000+0 0  9990
2 58347   0.0526   6.4081 0005302 158.7174 194.8892  5.00113720 15011
HAIYANG-3A              
1 58349U 23176A   24233.85278415  .00000606  00000+0  23224-3 0  9999
2 58349  98.6178 305.9290 0010235 186.1397 173.9664 14.34125007 39942
STARLINK-30907          
1 58352U 23177B   24233.18725011  .00007916  00000+0  60024-3 0  9999
2 58352  43.0009 190.2679 0001217 277.9483  82.1221 15.02545409 43082
