OBJECT_NAME,OBJECT_ID,EPOCH,MEAN_MOTION,ECCENTRICITY,INCLINATION,RA_OF_ASC_NODE,ARG_OF_PERICENTER,MEAN_ANOMALY,EPHEMERIS_TYPE,CLASSIFICATION_TYPE,NORAD_CAT_ID,ELEMENT_SET_NO,REV_AT_EPOCH,BSTAR,MEAN_MOTION_DOT,MEAN_MOTION_DDOT
FLOCK 4Q-34,2023-174BN,2024-08-20T03:52:26.707872,15.22025817,.0010898,97.4513,307.2242,3.1870,356.9433,0,U,58316,999,4344,.95227E-3,.21769E-3,0
KAFASAT,2023-174BP,2024-08-20T18:52:46.261920,15.28969841,.0009222,97.4504,308.9820,353.0180,7.0930,0,U,58317,999,4361,.17922E-2,.50695E-3,0
FLOCK 4Q-7,2023-174BQ,2024-08-20T04:33:28.352736,15.21713794,.0011224,97.4571,307.3783,1.3668,358.7596,0,U,58318,999,4344,.84286E-3,.19079E-3,0
FLOCK 4Q-15,2023-174BR,2024-08-20T16:59:33.271008,15.22310676,.0011219,97.4558,308.0384,357.8282,2.2904,0,U,58319,999,4353,.91969E-3,.21199E-3,0
FLOCK 4Q-2,2023-174BS,2024-08-20T20:26:15.278208,15.21507389,.0010331,97.4512,307.8211,358.1383,1.9813,0,U,58320,999,4354,.79719E-3,.17925E-3,0
PROTOMETHEE,2023-174BT,2024-08-20T19:18:14.912928,15.18750538,.0009736,97.4479,307.1238,0.5807,359.5436,0,U,58321,999,4350,.53764E-3,.11123E-3,0
FLOCK 4Q-9,2023-174BU,2024-08-20T18:15:55.353312,15.21673069,.0010525,97.4526,307.8412,358.9982,1.1231,0,U,58322,999,4353,.79775E-3,.18026E-3,0
OBSERVER-1A,2023-174BV,2024-08-20T19:58:52.902336,15.19533889,.0011306,97.4611,307.7371,359.1116,1.0097,0,U,58323,999,4351,.68553E-3,.1454E-3,0
FLOCK 4Q-10,2023-174BW,2024-08-20T03:19:31.718784,15.22049645,.0010308,97.4534,307.3128,359.2703,0.8516,0,U,58324,999,4344,.82744E-3,.18909E-3,0
PICO-01A003,2023-174BY,2024-08-20T20:13:14.968704,15.19704270,.0009811,97.4501,307.1768,20.0404,340.1214,0,U,58326,999,4350,.86577E-3,.18474E-3,0
FLOCK 4Q-4,2023-174BZ,2024-08-20T18:30:38.943648,15.21251361,.0009666,97.4505,307.5873,22.3599,337.8056,0,U,58327,999,4352,.67418E-3,.15026E-3,0
FLOCK 4Q-13,2023-174CA,2024-08-20T17:08:06.478368,15.21581258,.0011055,97.4578,307.7605,19.6249,340.5410,0,U,58328,999,4351,.81728E-3,.18423E-3,0
FLOCK 4Q-21,2023-174CB,2024-08-20T12:34:38.742528,15.22073892,.0010548,97.4567,307.6973,20.3481,339.8173,0,U,58329,999,4349,.92238E-3,.21109E-3,0
PICO-01G005,2023-174CC,2024-08-20T17:24:47.337696,15.27010313,.0007263,97.4458,308.2727,344.5303,15.5713,0,U,58330,999,4357,.1724E-2,.45892E-3,0
BRO-10,2023-174CD,2024-08-20T20:25:28.591104,15.24766782,.0008505,97.4456,308.4272,345.7899,14.3098,0,U,58331,999,4359,.7378E-3,.18256E-3,0
LEMUR-2-MARAPAMASM,2023-174CE,2024-08-20T17:02:01.005504,15.31118865,.0007175,97.4468,309.3888,338.0721,22.0212,0,U,58332,999,4364,.17632E-2,.53278E-3,0
LEMUR-2-THE-CLEANER,2023-174CF,2024-08-20T04:59:09.969792,15.26824149,.0008063,97.4483,308.1146,339.2100,20.8809,0,U,58333,999,4351,.16159E-2,.42758E-3,0
OUTPOST MISSION 2,2023-174CG,2024-08-20T19:08:13.951680,15.21886735,.001044,97.4584,308.1479,349.3759,10.7254,0,U,58334,999,4354,.8848E-3,.20132E-3,0
LEMUR-2-MANGO2A,2023-174CH,2024-08-20T18:07:08.622624,15.43793222,.0006374,97.4452,311.0197,297.7737,62.2864,0,U,58335,999,4375,.40883E-2,.189369E-2,0
LEMUR-2-JK0903EM1407,2023-174CJ,2024-08-20T03:55:18.522048,15.22493331,.0008364,97.4492,307.2658,348.9628,11.1423,0,U,58336,999,4345,.93941E-3,.21757E-3,0
LEMUR-2-MANGO2B,2023-174CK,2024-08-20T18:05:40.055712,15.43720332,.0007132,97.4498,311.2249,304.7806,55.2770,0,U,58337,999,4375,.25498E-2,.116709E-2,0
BARRY-1,2023-174CL,2024-08-20T04:26:40.193088,15.29110332,.0007665,97.4510,308.5555,336.7233,23.3659,0,U,58338,999,4353,.1777E-2,.5046E-3,0
PLATFORM-5,2023-174CM,2024-08-20T19:05:38.420448,15.28930045,.0008472,97.4564,309.3316,335.9947,24.0897,0,U,58339,999,4362,.16644E-2,.46985E-3,0
LEMUR-2-MJR092620,2023-174CN,2024-08-20T04:32:36.657024,15.22849515,.0009434,97.4551,307.6112,345.8294,14.2676,0,U,58340,999,4346,.93909E-3,.21985E-3,0
NINJASAT,2023-174CP,2024-08-20T19:13:21.447552,15.25990455,.0007589,97.4516,308.6664,338.7207,21.3714,0,U,58341,999,4359,.13041E-2,.33593E-3,0
PEARL 1C,2023-174CQ,2024-08-20T18:15:25.237728,15.25353577,.000965,97.4547,308.5190,331.0305,29.0396,0,U,58342,999,4357,.14823E-2,.37508E-3,0
O3B MPOWER F5,2023-175A,2024-08-16T11:25:32.330496,5.00116936,.0007024,0.0464,12.7442,138.1036,209.1914,0,U,58346,999,1593,0,-.16E-6,0
O3B MPOWER F6,2023-175B,2024-08-19T18:34:37.892352,5.00113720,.0005302,0.0526,6.4081,158.7174,194.8892,0,U,58347,999,1501,0,-.17E-6,0
HAIYANG-3A,2023-176A,2024-08-20T20:28:00.550560,14.34125007,.0010235,98.6178,305.9290,186.1397,173.9664,0,U,58349,999,3994,.23224E-3,.606E-5,0
STARLINK-30907,2023-177B,2024-08-20T04:29:38.409504,15.02545409,.0001217,43.0009,190.2679,277.9483,82.1221,0,U,58352,999,4308,.60024E-3,.7916E-4,0
